{"type": "FeatureCollection", "features": [ {"type": "Feature", "properties": {"norad_id": 31056, "name": "FENGYUN 1C DEB", "group": "fengyun-1c-debris", "lat": -75.32808958257668, "lon": 11.442765631469065, "alt_km": 838.2893233578998, "timestamp": "2025-12-19T10:50:01.481360+00:00", "meta": {"OBJECT_NAME": "FENGYUN 1C DEB", "OBJECT_ID": "1999-025BFA", "EPOCH": "2025-12-18T10:27:05.770944", "MEAN_MOTION": 14.14314319, "ECCENTRICITY": 0.0025209, "INCLINATION": 98.6671, "RA_OF_ASC_NODE": 334.8253, "ARG_OF_PERICENTER": 326.3437, "MEAN_ANOMALY": 186.0528, "EPHEMERIS_TYPE": 0, "CLASSIFICATION_TYPE": "U", "NORAD_CAT_ID": 31056, "ELEMENT_SET_NO": 999, "REV_AT_EPOCH": 96898, "BSTAR": 0.00032091776, "MEAN_MOTION_DOT": 5.72e-06, "MEAN_MOTION_DDOT": 0}, "tle": {"line1": "1 31056U 99025BFA 25352.43548346  .00000572  00000+0  32092-3 0  9996", "line2": "2 31056  98.6671 334.8253 0025209 326.3437 186.0528 14.14314319968989"}}, "geometry": {"type": "Point", "coordinates": [11.442765631469065, -75.32808958257668]}}, {"type": "Feature", "properties": {"norad_id": 31057, "name": "FENGYUN 1C DEB", "group": "fengyun-1c-debris", "lat": -52.05373222817642, "lon": 45.959860486136854, "alt_km": 612.9685772893417, "timestamp": "2025-12-19T10:50:01.481371+00:00", "meta": {"OBJECT_NAME": "FENGYUN 1C DEB", "OBJECT_ID": "1999-025BFB", "EPOCH": "2025-12-07T08:31:09.738912", "MEAN_MOTION": 14.79274467, "ECCENTRICITY": 0.0137797, "INCLINATION": 99.2572, "RA_OF_ASC_NODE": 19.9678, "ARG_OF_PERICENTER": 268.7892, "MEAN_ANOMALY": 89.7526, "EPHEMERIS_TYPE": 0, "CLASSIFICATION_TYPE": "U", "NORAD_CAT_ID": 31057, "ELEMENT_SET_NO": 999, "REV_AT_EPOCH": 61873, "BSTAR": 0.0014079461, "MEAN_MOTION_DOT": 0.00012236, "MEAN_MOTION_DDOT": 0}, "tle": {"line1": "1 31057U 99025BFB 25341.35497383  .00012236  00000+0  14079-2 0  9994", "line2": "2 31057  99.2572  19.9678 0137797 268.7892  89.7526 14.79274467618731"}}, "geometry": {"type": "Point", "coordinates": [45.959860486136854, -52.05373222817642]}}, {"type": "Feature", "properties": {"norad_id": 31058, "name": "FENGYUN 1C DEB", "group": "fengyun-1c-debris", "lat": 34.41748310325739, "lon": -62.68110578623903, "alt_km": 595.5867752915829, "timestamp": "2025-12-19T10:50:01.481381+00:00", "meta": {"OBJECT_NAME": "FENGYUN 1C DEB", "OBJECT_ID": "1999-025BFC", "EPOCH": "2025-12-16T02:58:40.790208", "MEAN_MOTION": 14.76385541, "ECCENTRICITY": 0.00951524, "INCLINATION": 99.5654, "RA_OF_ASC_NODE": 300.0182, "ARG_OF_PERICENTER": 95.8616, "MEAN_ANOMALY": 265.3444, "EPHEMERIS_TYPE": 0, "CLASSIFICATION_TYPE": "U", "NORAD_CAT_ID": 31058, "ELEMENT_SET_NO": 999, "REV_AT_EPOCH": 99599, "BSTAR": 0.00080135527, "MEAN_MOTION_DOT": 5.927e-05, "MEAN_MOTION_DDOT": 0}, "tle": {"line1": "1 31058U 99025BFC 25350.12408322  .00005927  00000+0  80136-3 0  9992", "line2": "2 31058  99.5654 300.0182 0095152  95.8616 265.3444 14.76385541995991"}}, "geometry": {"type": "Point", "coordinates": [-62.68110578623903, 34.41748310325739]}}, {"type": "Feature", "properties": {"norad_id": 31062, "name": "FENGYUN 1C DEB", "group": "fengyun-1c-debris", "lat": -63.7590589253427, "lon": -165.785318307532, "alt_km": 860.6245566281768, "timestamp": "2025-12-19T10:50:01.481391+00:00", "meta": {"OBJECT_NAME": "FENGYUN 1C DEB", "OBJECT_ID": "1999-025BFG", "EPOCH": "2025-12-17T19:04:10.170624", "MEAN_MOTION": 13.75694526, "ECCENTRICITY": 0.01715398, "INCLINATION": 98.9965, "RA_OF_ASC_NODE": 173.9043, "ARG_OF_PERICENTER": 304.4147, "MEAN_ANOMALY": 69.4412, "EPHEMERIS_TYPE": 0, "CLASSIFICATION_TYPE": "U", "NORAD_CAT_ID": 31062, "ELEMENT_SET_NO": 999, "REV_AT_EPOCH": 94303, "BSTAR": 0.00025609308, "MEAN_MOTION_DOT": 2.33e-06, "MEAN_MOTION_DDOT": 0}, "tle": {"line1": "1 31062U 99025BFG 25351.79456216  .00000233  00000+0  25609-3 0  9995", "line2": "2 31062  98.9965 173.9043 0171539 304.4147  69.4412 13.75694526943039"}}, "geometry": {"type": "Point", "coordinates": [-165.785318307532, -63.7590589253427]}}, {"type": "Feature", "properties": {"norad_id": 31064, "name": "FENGYUN 1C DEB", "group": "fengyun-1c-debris", "lat": 49.491179432167016, "lon": 166.1301853423707, "alt_km": 958.812965074093, "timestamp": "2025-12-19T10:50:01.481401+00:00", "meta": {"OBJECT_NAME": "FENGYUN 1C DEB", "OBJECT_ID": "1999-025BFJ", "EPOCH": "2025-12-17T16:51:38.215296", "MEAN_MOTION": 14.22146869, "ECCENTRICITY": 0.02411952, "INCLINATION": 98.5744, "RA_OF_ASC_NODE": 334.2562, "ARG_OF_PERICENTER": 347.208, "MEAN_ANOMALY": 192.2387, "EPHEMERIS_TYPE": 0, "CLASSIFICATION_TYPE": "U", "NORAD_CAT_ID": 31064, "ELEMENT_SET_NO": 999, "REV_AT_EPOCH": 97325, "BSTAR": 0.00032389847, "MEAN_MOTION_DOT": 9.17e-06, "MEAN_MOTION_DDOT": 0}, "tle": {"line1": "1 31064U 99025BFJ 25351.70252564  .00000917  00000+0  32390-3 0  9992", "line2": "2 31064  98.5744 334.2562 0241195 347.2080 192.2387 14.22146869973255"}}, "geometry": {"type": "Point", "coordinates": [166.1301853423707, 49.491179432167016]}}, {"type": "Feature", "properties": {"norad_id": 31065, "name": "FENGYUN 1C DEB", "group": "fengyun-1c-debris", "lat": -23.754565695971927, "lon": -171.40215327299148, "alt_km": 827.7271785045177, "timestamp": "2025-12-19T10:50:01.481412+00:00", "meta": {"OBJECT_NAME": "FENGYUN 1C DEB", "OBJECT_ID": "1999-025BFK", "EPOCH": "2025-12-17T19:12:35.367840", "MEAN_MOTION": 14.28196453, "ECCENTRICITY": 0.00349818, "INCLINATION": 98.4658, "RA_OF_ASC_NODE": 10.7553, "ARG_OF_PERICENTER": 16.5236, "MEAN_ANOMALY": 343.7078, "EPHEMERIS_TYPE": 0, "CLASSIFICATION_TYPE": "U", "NORAD_CAT_ID": 31065, "ELEMENT_SET_NO": 999, "REV_AT_EPOCH": 64650, "BSTAR": 0.00070750012, "MEAN_MOTION_DOT": 1.731e-05, "MEAN_MOTION_DDOT": 0}, "tle": {"line1": "1 31065U 99025BFK 25351.80040935  .00001731  00000+0  70750-3 0  9998", "line2": "2 31065  98.4658  10.7553 0034981  16.5236 343.7078 14.28196453646502"}}, "geometry": {"type": "Point", "coordinates": [-171.40215327299148, -23.754565695971927]}}, {"type": "Feature", "properties": {"norad_id": 31068, "name": "FENGYUN 1C DEB", "group": "fengyun-1c-debris", "lat": 32.73396923150732, "lon": 160.9437793305411, "alt_km": 777.8704120447392, "timestamp": "2025-12-19T10:50:01.481422+00:00", "meta": {"OBJECT_NAME": "FENGYUN 1C DEB", "OBJECT_ID": "1999-025BFN", "EPOCH": "2025-12-18T05:11:10.079232", "MEAN_MOTION": 14.09194848, "ECCENTRICITY": 0.01658276, "INCLINATION": 98.6292, "RA_OF_ASC_NODE": 334.1581, "ARG_OF_PERICENTER": 102.7701, "MEAN_ANOMALY": 259.2059, "EPHEMERIS_TYPE": 0, "CLASSIFICATION_TYPE": "U", "NORAD_CAT_ID": 31068, "ELEMENT_SET_NO": 999, "REV_AT_EPOCH": 96432, "BSTAR": 9.338264e-05, "MEAN_MOTION_DOT": 1.44e-06, "MEAN_MOTION_DDOT": 0}, "tle": {"line1": "1 31068U 99025BFN 25352.21608888  .00000144  00000+0  93383-4 0  9999", "line2": "2 31068  98.6292 334.1581 0165827 102.7701 259.2059 14.09194848964322"}}, "geometry": {"type": "Point", "coordinates": [160.9437793305411, 32.73396923150732]}}, {"type": "Feature", "properties": {"norad_id": 31069, "name": "FENGYUN 1C DEB", "group": "fengyun-1c-debris", "lat": -35.20266853330731, "lon": -32.13846394764398, "alt_km": 777.3485962375262, "timestamp": "2025-12-19T10:50:01.481432+00:00", "meta": {"OBJECT_NAME": "FENGYUN 1C DEB", "OBJECT_ID": "1999-025BFP", "EPOCH": "2025-12-15T06:58:24.353760", "MEAN_MOTION": 14.57126924, "ECCENTRICITY": 0.01044954, "INCLINATION": 99.0991, "RA_OF_ASC_NODE": 149.8113, "ARG_OF_PERICENTER": 69.7479, "MEAN_ANOMALY": 291.4914, "EPHEMERIS_TYPE": 0, "CLASSIFICATION_TYPE": "U", "NORAD_CAT_ID": 31069, "ELEMENT_SET_NO": 999, "REV_AT_EPOCH": 98723, "BSTAR": 0.00048052273, "MEAN_MOTION_DOT": 2.275e-05, "MEAN_MOTION_DDOT": 0}, "tle": {"line1": "1 31069U 99025BFP 25349.29055965  .00002275  00000+0  48052-3 0  9995", "line2": "2 31069  99.0991 149.8113 0104495  69.7479 291.4914 14.57126924987230"}}, "geometry": {"type": "Point", "coordinates": [-32.13846394764398, -35.20266853330731]}}, {"type": "Feature", "properties": {"norad_id": 31071, "name": "FENGYUN 1C DEB", "group": "fengyun-1c-debris", "lat": -23.436766342035785, "lon": -112.24387747635518, "alt_km": 701.0571942311108, "timestamp": "2025-12-19T10:50:01.481442+00:00", "meta": {"OBJECT_NAME": "FENGYUN 1C DEB", "OBJECT_ID": "1999-025BFR", "EPOCH": "2025-12-17T11:36:27.822240", "MEAN_MOTION": 14.52669079, "ECCENTRICITY": 0.00558821, "INCLINATION": 99.0414, "RA_OF_ASC_NODE": 69.5951, "ARG_OF_PERICENTER": 267.3702, "MEAN_ANOMALY": 92.1094, "EPHEMERIS_TYPE": 0, "CLASSIFICATION_TYPE": "U", "NORAD_CAT_ID": 31071, "ELEMENT_SET_NO": 999, "REV_AT_EPOCH": 65563, "BSTAR": 0.00084122866, "MEAN_MOTION_DOT": 3.464e-05, "MEAN_MOTION_DDOT": 0}, "tle": {"line1": "1 31071U 99025BFR 25351.48365535  .00003464  00000+0  84123-3 0  9999", "line2": "2 31071  99.0414  69.5951 0055882 267.3702  92.1094 14.52669079655630"}}, "geometry": {"type": "Point", "coordinates": [-112.24387747635518, -23.436766342035785]}}, {"type": "Feature", "properties": {"norad_id": 31072, "name": "FENGYUN 1C DEB", "group": "fengyun-1c-debris", "lat": 46.25424664468885, "lon": -170.84029440371205, "alt_km": 712.2723125681059, "timestamp": "2025-12-19T10:50:01.481452+00:00", "meta": {"OBJECT_NAME": "FENGYUN 1C DEB", "OBJECT_ID": "1999-025BFS", "EPOCH": "2025-12-16T18:13:11.315136", "MEAN_MOTION": 14.25497382, "ECCENTRICITY": 0.02103656, "INCLINATION": 99.3328, "RA_OF_ASC_NODE": 356.4011, "ARG_OF_PERICENTER": 86.3068, "MEAN_ANOMALY": 276.2137, "EPHEMERIS_TYPE": 0, "CLASSIFICATION_TYPE": "U", "NORAD_CAT_ID": 31072, "ELEMENT_SET_NO": 999, "REV_AT_EPOCH": 96700, "BSTAR": 0.00047345897, "MEAN_MOTION_DOT": 1.358e-05, "MEAN_MOTION_DDOT": 0}, "tle": {"line1": "1 31072U 99025BFS 25350.75915874  .00001358  00000+0  47346-3 0  9992", "line2": "2 31072  99.3328 356.4011 0210365  86.3068 276.2137 14.25497382967002"}}, "geometry": {"type": "Point", "coordinates": [-170.84029440371205, 46.25424664468885]}}]}